{
  "type": "FeatureCollection",
  "features": [
    {
      "type": "Feature",
      "properties": {
        "norad_id": 66792,
        "name": "STARLINK-35990",
        "group": "last-30-days",
        "lat": 36.30685876588528,
        "lon": -105.111512000312,
        "alt_km": 380.4021701726642,
        "timestamp": "2025-12-20T20:38:43.172899+00:00",
        "meta_object_name": "STARLINK-35990",
        "meta_object_id": "2025-278B",
        "meta_epoch": "2025-12-20T14:00:03.000384",
        "meta_mean_motion": 15.62060566,
        "meta_eccentricity": 0.0001549,
        "meta_inclination": 42.9991,
        "meta_ra_of_asc_node": 204.4871,
        "meta_arg_of_pericenter": 250.7818,
        "meta_mean_anomaly": 51.3863,
        "meta_ephemeris_type": 0,
        "meta_classification_type": "U",
        "meta_norad_cat_id": 66792,
        "meta_element_set_no": 999,
        "meta_rev_at_epoch": 421,
        "meta_bstar": -0.024240192,
        "meta_mean_motion_dot": -0.01925759,
        "meta_mean_motion_ddot": 0,
        "tle_line1": "1 66792U 25278B   25354.58336806 -.01925759  00000+0 -24240-1 0  9994",
        "tle_line2": "2 66792  42.9991 204.4871 0001549 250.7818  51.3863 15.62060566  4212"
      },
      "geometry": {
        "type": "Point",
        "coordinates": [
          -105.111512000312,
          36.30685876588528
        ]
      }
    },
    {
      "type": "Feature",
      "properties": {
        "norad_id": 66793,
        "name": "STARLINK-36051",
        "group": "last-30-days",
        "lat": 37.835807481361435,
        "lon": -100.7075255208065,
        "alt_km": 380.1705817153543,
        "timestamp": "2025-12-20T20:38:43.172909+00:00",
        "meta_object_name": "STARLINK-36051",
        "meta_object_id": "2025-278C",
        "meta_epoch": "2025-12-20T14:00:03.000384",
        "meta_mean_motion": 15.62064444,
        "meta_eccentricity": 0.00015347,
        "meta_inclination": 42.9992,
        "meta_ra_of_asc_node": 204.4776,
        "meta_arg_of_pericenter": 250.4231,
        "meta_mean_anomaly": 55.5794,
        "meta_ephemeris_type": 0,
        "meta_classification_type": "U",
        "meta_norad_cat_id": 66793,
        "meta_element_set_no": 999,
        "meta_rev_at_epoch": 412,
        "meta_bstar": -0.024364919,
        "meta_mean_motion_dot": -0.01934744,
        "meta_mean_motion_ddot": 0,
        "tle_line1": "1 66793U 25278C   25354.58336806 -.01934744  00000+0 -24365-1 0  9997",
        "tle_line2": "2 66793  42.9992 204.4776 0001534 250.4231  55.5794 15.62064444  4126"
      },
      "geometry": {
        "type": "Point",
        "coordinates": [
          -100.7075255208065,
          37.835807481361435
        ]
      }
    },
    {
      "type": "Feature",
      "properties": {
        "norad_id": 66794,
        "name": "STARLINK-36062",
        "group": "last-30-days",
        "lat": 37.091908318244265,
        "lon": -102.9321897370238,
        "alt_km": 380.24050594599066,
        "timestamp": "2025-12-20T20:38:43.172919+00:00",
        "meta_object_name": "STARLINK-36062",
        "meta_object_id": "2025-278D",
        "meta_epoch": "2025-12-20T14:00:03.000384",
        "meta_mean_motion": 15.62066591,
        "meta_eccentricity": 0.00014912,
        "meta_inclination": 42.9992,
        "meta_ra_of_asc_node": 204.4817,
        "meta_arg_of_pericenter": 252.5475,
        "meta_mean_anomaly": 51.5352,
        "meta_ephemeris_type": 0,
        "meta_classification_type": "U",
        "meta_norad_cat_id": 66794,
        "meta_element_set_no": 999,
        "meta_rev_at_epoch": 421,
        "meta_bstar": -0.024377245,
        "meta_mean_motion_dot": -0.0193572,
        "meta_mean_motion_ddot": 0,
        "tle_line1": "1 66794U 25278D   25354.58336806 -.01935720  00000+0 -24377-1 0  9996",
        "tle_line2": "2 66794  42.9992 204.4817 0001491 252.5475  51.5352 15.62066591  4219"
      },
      "geometry": {
        "type": "Point",
        "coordinates": [
          -102.9321897370238,
          37.091908318244265
        ]
      }
    },
    {
      "type": "Feature",
      "properties": {
        "norad_id": 66795,
        "name": "STARLINK-36047",
        "group": "last-30-days",
        "lat": 38.53604293303066,
        "lon": -98.44175663110636,
        "alt_km": 380.0539841943046,
        "timestamp": "2025-12-20T20:38:43.172929+00:00",
        "meta_object_name": "STARLINK-36047",
        "meta_object_id": "2025-278E",
        "meta_epoch": "2025-12-20T14:00:03.000384",
        "meta_mean_motion": 15.62066144,
        "meta_eccentricity": 0.00015291,
        "meta_inclination": 42.9991,
        "meta_ra_of_asc_node": 204.473,
        "meta_arg_of_pericenter": 250.2151,
        "meta_mean_anomaly": 57.7005,
        "meta_ephemeris_type": 0,
        "meta_classification_type": "U",
        "meta_norad_cat_id": 66795,
        "meta_element_set_no": 999,
        "meta_rev_at_epoch": 412,
        "meta_bstar": -0.024345933,
        "meta_mean_motion_dot": -0.01933526,
        "meta_mean_motion_ddot": 0,
        "tle_line1": "1 66795U 25278E   25354.58336806 -.01933526  00000+0 -24346-1 0  9995",
        "tle_line2": "2 66795  42.9991 204.4730 0001529 250.2151  57.7005 15.62066144  4128"
      },
      "geometry": {
        "type": "Point",
        "coordinates": [
          -98.44175663110636,
          38.53604293303066
        ]
      }
    },
    {
      "type": "Feature",
      "properties": {
        "norad_id": 66796,
        "name": "STARLINK-35964",
        "group": "last-30-days",
        "lat": -10.300250494269743,
        "lon": -170.04002610438945,
        "alt_km": 328.3628698838229,
        "timestamp": "2025-12-20T20:38:43.172939+00:00",
        "meta_object_name": "STARLINK-35964",
        "meta_object_id": "2025-278F",
        "meta_epoch": "2025-12-20T13:07:43.320288",
        "meta_mean_motion": 15.80935455,
        "meta_eccentricity": 0.00023294,
        "meta_inclination": 42.9913,
        "meta_ra_of_asc_node": 203.1277,
        "meta_arg_of_pericenter": 249.4477,
        "meta_mean_anomaly": 110.6144,
        "meta_ephemeris_type": 0,
        "meta_classification_type": "U",
        "meta_norad_cat_id": 66796,
        "meta_element_set_no": 999,
        "meta_rev_at_epoch": 308,
        "meta_bstar": 0.0014213593,
        "meta_mean_motion_dot": 0.00294017,
        "meta_mean_motion_ddot": 0,
        "tle_line1": "1 66796U 25278F   25354.54702917  .00294017  00000+0  14214-2 0  9998",
        "tle_line2": "2 66796  42.9913 203.1277 0002329 249.4477 110.6144 15.80935455  3082"
      },
      "geometry": {
        "type": "Point",
        "coordinates": [
          -170.04002610438945,
          -10.300250494269743
        ]
      }
    },
    {
      "type": "Feature",
      "properties": {
        "norad_id": 66797,
        "name": "STARLINK-36099",
        "group": "last-30-days",
        "lat": 39.802709810112354,
        "lon": -93.77463118945003,
        "alt_km": 379.8624790227759,
        "timestamp": "2025-12-20T20:38:43.172955+00:00",
        "meta_object_name": "STARLINK-36099",
        "meta_object_id": "2025-278G",
        "meta_epoch": "2025-12-20T14:00:03.000384",
        "meta_mean_motion": 15.62064407,
        "meta_eccentricity": 0.00015339,
        "meta_inclination": 42.9992,
        "meta_ra_of_asc_node": 204.4634,
        "meta_arg_of_pericenter": 253.7324,
        "meta_mean_anomaly": 58.0199,
        "meta_ephemeris_type": 0,
        "meta_classification_type": "U",
        "meta_norad_cat_id": 66797,
        "meta_element_set_no": 999,
        "meta_rev_at_epoch": 427,
        "meta_bstar": -0.024345341,
        "meta_mean_motion_dot": -0.01933371,
        "meta_mean_motion_ddot": 0,
        "tle_line1": "1 66797U 25278G   25354.58336806 -.01933371  00000+0 -24345-1 0  9994",
        "tle_line2": "2 66797  42.9992 204.4634 0001533 253.7324  58.0199 15.62064407  4273"
      },
      "geometry": {
        "type": "Point",
        "coordinates": [
          -93.77463118945003,
          39.802709810112354
        ]
      }
    },
    {
      "type": "Feature",
      "properties": {
        "norad_id": 66798,
        "name": "STARLINK-36041",
        "group": "last-30-days",
        "lat": 40.362914074808934,
        "lon": -91.38443280220766,
        "alt_km": 379.81155656847204,
        "timestamp": "2025-12-20T20:38:43.172965+00:00",
        "meta_object_name": "STARLINK-36041",
        "meta_object_id": "2025-278H",
        "meta_epoch": "2025-12-20T14:00:03.000384",
        "meta_mean_motion": 15.62067808,
        "meta_eccentricity": 0.00015855,
        "meta_inclination": 42.999,
        "meta_ra_of_asc_node": 204.4577,
        "meta_arg_of_pericenter": 251.0713,
        "meta_mean_anomaly": 62.5946,
        "meta_ephemeris_type": 0,
        "meta_classification_type": "U",
        "meta_norad_cat_id": 66798,
        "meta_element_set_no": 999,
        "meta_rev_at_epoch": 406,
        "meta_bstar": -0.024386718,
        "meta_mean_motion_dot": -0.01936533,
        "meta_mean_motion_ddot": 0,
        "tle_line1": "1 66798U 25278H   25354.58336806 -.01936533  00000+0 -24387-1 0  9994",
        "tle_line2": "2 66798  42.9990 204.4577 0001585 251.0713  62.5946 15.62067808  4063"
      },
      "geometry": {
        "type": "Point",
        "coordinates": [
          -91.38443280220766,
          40.362914074808934
        ]
      }
    }
  ]
}